[{"OBJECT_NAME":"STARLINK-34036","OBJECT_ID":"2025-098V","EPOCH":"2026-03-09T22:02:25.789056","MEAN_MOTION":14.98331305,"ECCENTRICITY":0.00026518,"INCLINATION":70.0004,"RA_OF_ASC_NODE":274.0016,"ARG_OF_PERICENTER":272.7085,"MEAN_ANOMALY":87.3771,"EPHEMERIS_TYPE":0,"CLASSIFICATION_TYPE":"U","NORAD_CAT_ID":63945,"ELEMENT_SET_NO":999,"REV_AT_EPOCH":4658,"BSTAR":0.00023308969,"MEAN_MOTION_DOT":2.689e-5,"MEAN_MOTION_DDOT":0},{"OBJECT_NAME":"PEGASUS DEB","OBJECT_ID":"1994-029ABU","EPOCH":"2026-03-08T09:55:10.155936","MEAN_MOTION":14.19535939,"ECCENTRICITY":0.03610507,"INCLINATION":81.685,"RA_OF_ASC_NODE":93.5097,"ARG_OF_PERICENTER":18.2292,"MEAN_ANOMALY":45.8022,"EPHEMERIS_TYPE":0,"CLASSIFICATION_TYPE":"U","NORAD_CAT_ID":24817,"ELEMENT_SET_NO":999,"REV_AT_EPOCH":50638,"BSTAR":0.0011603059,"MEAN_MOTION_DOT":4.738e-5,"MEAN_MOTION_DDOT":0}]
